#dP2020  6  8  0  0  0.00000000      96 __u+U ITR00 FIT  IAC
## 2109  86400.00000000   900.00000000 59008 0.0000000000000
+  119   C01C02C03C04C05C06C07C08C09C10C11C12C13C14C16C19C20
+        C21C22C23C24C25C26C27C28C29C30C32C33C34C35C36C37C38
+        C45C46E01E02E03E04E05E07E08E09E11E12E13E14E15E18E19
+        E21E24E25E26E27E30E31E33E36G01G02G03G04G05G06G07G08
+        G09G10G11G12G13G14G15G16G17G18G19G20G21G22G23G24G25
+        G26G27G28G29G30G31G32J01J02J03J07R01R02R03R04R05R07
+        R08R09R11R12R13R14R15R16R17R18R19R20R21R22R23R24R26
++        13 13 13 13 13  8  8  9  8  8  8  8  8  8  8  8  8
++         8  8  7  7  7  7  7  8  8  8  8  8  8  8  8  8 10
++         0 10  4  4  5  5  5  4  4  4  4  4  4  4  4  5  5
++         4  5  4  4  4  4  5  4  4  4  4  3  3  3  3  3  3
++         3  3  4  3  3  4  3  3  3  4  3  3  4  3  4  3  3
++         3  3  4  3  3  3  3  8  8  8 15  6  5  6  6  5  5
++         5  5  5  6  6  6  5  6  5  6  6  6  5  8  6  5  8
%c M  cc GPS ccc cccc cccc cccc cccc ccccc ccccc ccccc ccccc
%c cc cc ccc ccc cccc cccc cccc cccc ccccc ccccc ccccc ccccc
%f  0.0000000  0.000000000  0.00000000000  0.000000000000000
%f  0.0000000  0.000000000  0.00000000000  0.000000000000000
%i    0    0    0    0      0      0      0      0         0
%i    0    0    0    0      0      0      0      0         0
/* INFORMATION & ANALYSIS CENTER (IAC)            RAPID DATA
/* S/V CLOCKS ARE ALIGNED TO GNSS TIME                      
/* G:C1WC2W R:C1PC2P E:C1XC5X C:C2IC6I J:C1CC2S             
/* PCV:IGS14_2101 OL/AL:FES2004  NONE     YN ORB:CoN CLK:CoN
*  2020 06 08  6 45  0.00000000
PC01 -34294.858015  24507.405183   -313.314737   -438.418009
PC02   4431.781672  41929.003344    -23.775434    296.906877
PC03 -14799.716356  39439.456706    784.542324    871.468346
PC04 -39586.743021  14462.572138    553.944556   -177.833177
PC05  21889.498166  36022.545475   -164.122391   -419.516042
PC06 -19416.027661  20787.070034 -30855.594658    748.540347
PC07 -20276.722694  36645.374169   1058.239893     64.122346
PC08  -5027.482361  29581.317727  29857.498896   -298.758412
PC09    413.149213  24585.887054 -33963.827879    595.420849
PC10  -8346.606770  38404.793164  14862.767810   -268.099860
PC11  26788.615182   6217.437903  -4838.396763   -414.954160
PC12  19227.756318  15624.898302  12892.139405    394.898546
PC13   5785.139420  37423.549861  18900.403430    479.108350
PC14  21621.754127  -2982.800362 -17388.696334    505.438112
PC16 -15667.641982  21733.845995 -32522.694238   -622.668788
PC19 -23356.400237  11284.982273  10294.023171    437.458958
PC20 -16927.517302  -5034.146464  21622.044332   -857.068072
PC21    155.965555  18932.910150 -20467.424928   -500.528122
PC22 -16355.584636  21368.324288  -7313.864008   -789.521150
PC23   6610.285728 -22526.451896  15098.618737   -857.747057
PC24  15257.543275  16279.537149  16768.431807   -797.740887
PC25  15316.403641  -5325.264723  22708.675849   -644.556876
PC26   7175.922659  26924.288761   1796.755228    710.251430
PC27 -10165.731307 -17647.112859 -19106.828979    343.830823
PC28  10430.053818 -12795.941356 -22501.127607   -217.929277
PC29 -24791.469344   1447.597920  12723.406682    239.526883
PC30 -25031.369203 -11384.585863  -4828.012729    328.844464
PC32   -322.185598 -18961.406721  20497.326148   -881.175513
PC33  23312.491632 -11401.784301 -10278.168287   -817.815712
PC34  25175.416153  11191.932624   4345.515779   -791.502936
PC35 -10227.674036  13100.570162  22415.917528   -806.872654
PC36 -15479.882758   4705.175997 -22710.187125   -842.044645
PC37  -6115.017172 -27198.819369  -1130.598257   -848.730878
PC38  -2934.349585  33175.403003  25917.532525     82.313303
PC45      0.000000      0.000000      0.000000 999999.999999
PC46 -15352.111755 -15735.622951 -17162.381367 999999.999999
PE01 -12973.606371 -12589.990371 -23438.656207   -873.259775
PE02  13013.873655  12499.134887  23464.564093    138.936870
PE03  22675.636195   6609.969791 -17843.736647   -307.485031
PE04 -28646.622996   7326.676649   1346.767730   -541.565512
PE05   3310.665386  16860.210458 -24093.427834   -373.434670
PE07  17826.407257 -17189.855823  16236.685944   -392.776997
PE08  28571.966362  -7684.544371  -1115.346730   6166.840232
PE09 -17645.275034  17218.405617 -16356.919053   6035.407241
PE11  -6575.408169  15700.883332  24203.328412   3326.666754
PE12 -21395.909815  -1696.170753  20391.481352   5765.783030
PE13   6666.961108 -15521.860550 -24305.894097    401.434789
PE14 -12891.250303 -18568.879047 -21898.345167  -1042.059134
PE15  21246.169473   1440.849481 -20553.705612    864.261169
PE18  21312.027189   9733.654160  10248.878431  -1142.610621
PE19 -21072.292749  -7912.089664  19234.706266  -3326.866604
PE21  -1206.160902 -27266.149274 -11465.154450   -603.388587
PE24 -11800.330532  26058.537870  -7651.450045   5413.779948
PE25   1118.950865  27312.989423  11354.679837   -511.822524
PE26 -11972.960088 -23538.224148 -13371.500774   3097.562817
PE27  11507.708596 -26244.517255   7415.862287    203.021487
PE30  17499.599110  -9318.243466  21968.794323   3843.275424
PE31 -17393.775658   9817.386682 -21838.444655   -472.795945
PE33 -23355.983745 -17569.366782   4727.684153   -466.350477
PE36  11817.275813  23368.859462  13792.359922    549.752439
PG01 -18469.542053  -9359.829150  16603.231968      2.315845
PG02  13471.962596  22806.037097   2935.259650   -468.757186
PG03 -17097.043425   2176.301620  20117.211061   -201.950318
PG04 -26575.958713   -329.551912    -43.525682    -99.739326
PG05   6483.610688  17262.031757 -19182.453709    -14.229152
PG06   4358.959142  23149.250392  12275.702106   -285.235889
PG07 -12057.693617   9429.135333 -21368.656002   -299.535767
PG08 -23213.794390  -6891.833883 -11194.535823    -36.789525
PG09 -22843.993333   8406.156851 -10697.172932   -232.380568
PG10  11099.250172 -23861.878255   2537.005499   -365.017529
PG11 -23387.489813 -11593.975911   3389.712878   -254.766438
PG12  16826.020402   -899.476881  20254.037636    108.588479
PG13  16632.040524  13070.343251 -16237.665881     16.549485
PG14  -1658.524594 -15461.133432  21895.645206     -7.403103
PG15  24105.636751   5080.912715 -10718.668903   -225.727010
PG16  -6194.025671 -15655.062774 -20644.057242   -167.849421
PG17  -8730.192426  13858.859383  21320.314264    277.441267
PG18  11951.128073  -9498.852943 -21743.673428    213.990034
PG19    -96.581964  14643.933592  21857.637792   -148.063407
PG20  15182.375412 -19450.317015  -9607.430972    527.554946
PG21   4690.377245 -17054.539690 -19168.076927      8.893366
PG22 -14385.453697  -6926.671650  21441.773371   -779.024882
PG23 -18485.195500  11681.110316 -14983.803587   -107.583578
PG24  19887.215739   9882.854095  14635.893623    -14.052404
PG25  18274.089010 -11390.463713  15138.757877     11.044792
PG26   2121.643189 -23440.745001 -12120.290028    221.418808
PG27 -14410.078787 -12405.338798 -18828.523069   -314.956145
PG28 -11873.918122  23434.671642   4984.662426    710.535377
PG29  25129.036369  -3885.693941  -7765.205241   -122.960100
PG30  -4071.485923  19273.070366 -17672.404816   -237.172322
PG31  -4800.214800 -23608.117321  10610.598571    -47.716303
PG32   7099.284655 -14907.495411  20859.535379    296.027137
PJ01 -35449.311609  22555.458585   1394.875469   -290.702262
PJ02 -20904.965213  30025.255860 -16361.659282     -0.400206
PJ03 -28629.040725  23413.335336  25408.246508     -3.857707
PJ07 -25354.110487  33685.253720      9.179768      0.005533
PR01  12031.350343   4994.067469 -21926.299770     62.753342
PR02  22562.211068  -9360.176486  -7207.539876    430.570353
PR03  17113.532778 -15898.899933  10239.507635     16.417216
PR04   2127.539668 -13186.996134  21762.589083     51.985495
PR05 -14116.981198  -3108.910383  21037.748485     51.923737
PR07 -16850.472599  15930.722161 -10630.056449    -37.355149
PR08  -2133.329883  13264.642151 -21626.756803    -52.736191
PR09 -10287.261647   9254.852551 -21398.420759    136.891746
PR11   2959.135522  24790.195593   5115.001256    -26.347019
PR12   9265.666923  14272.752853  19036.569619    137.329877
PR13  10609.590773  -5042.526938  22626.921668    -39.729135
PR14   5793.096263 -21308.809340  12796.726230     52.061472
PR15  -2355.586815 -25046.286270  -4209.244379    106.703130
PR16  -9841.883842 -13404.656409 -19317.845040     -4.016561
PR17   7659.433908  -7750.778579 -23062.258407    331.352337
PR18  -9119.150803 -14850.472242 -18642.878159     38.103356
PR19 -20342.574939 -14650.714636  -4716.234587    -96.975704
PR20 -20524.884467  -4878.012576  14374.861260   -413.721347
PR21  -6674.744640   8256.445391  23187.094038   -129.919649
PR22  11162.455396  15244.475665  17069.684133  -1310.696342
PR23  22528.911088  11738.716141  -2304.718507    310.775439
PR24  20382.297212   3984.764745 -14806.387424      1.887940
PR26 -22155.024818  -7404.536602  10222.984015   -393.345534
EOF
